start=new Date('2023-04-19T00:00:00.000Z').valueOf();
sats=[{"MEAN_ANOMALY":"113.5056","MEAN_ELEMENT_THEORY":"SGP4","OBJECT_ID":"2023-013V","REF_FRAME":"TEME","SEMIMAJOR_AXIS":"6931.266","SITE":"AFETR","ECCENTRICITY":"0.00014080","OBJECT_NAME":"STARLINK-5668","PERIAPSIS":"552.156","BSTAR":"0.00148160000000","TLE_LINE2":"2 55350  42.9997 277.0499 0001408 274.2492 113.5056 15.04471177  1303","TIME_SYSTEM":"UTC","FILE":"3889987","OBJECT_TYPE":"PAYLOAD","MEAN_MOTION_DOT":"0.00020929","LAUNCH_DATE":"2023-01-26","TLE_LINE1":"1 55350U 23013V   23108.91667824  .00020929  00000-0  14816-2 0  9998","EPHEMERIS_TYPE":"0","RA_OF_ASC_NODE":"277.0499","MEAN_MOTION":"15.04471177","CLASSIFICATION_TYPE":"U","PERIOD":"95.715","MEAN_MOTION_DDOT":"0.0000000000000","RCS_SIZE":"LARGE","INCLINATION":"42.9997","GP_ID":"230334657","DECAY_DATE":null,"ARG_OF_PERICENTER":"274.2492","CENTER_NAME":"EARTH","REV_AT_EPOCH":"130","COUNTRY_CODE":"US","EPOCH":"2023-04-18T22:00:00.999936","ELEMENT_SET_NO":"999","APOAPSIS":"554.107","NORAD_CAT_ID":"55350"},{"EPOCH":"2023-04-18T22:00:00.999936","ELEMENT_SET_NO":"999","APOAPSIS":"560.166","NORAD_CAT_ID":"55351","DECAY_DATE":null,"GP_ID":"230332911","CENTER_NAME":"EARTH","ARG_OF_PERICENTER":"271.1898","REV_AT_EPOCH":"130","COUNTRY_CODE":"US","RCS_SIZE":"LARGE","MEAN_MOTION_DDOT":"0.0000000000000","INCLINATION":"43.0000","RA_OF_ASC_NODE":"276.9024","MEAN_MOTION":"15.02508764","CLASSIFICATION_TYPE":"U","PERIOD":"95.840","MEAN_MOTION_DOT":"0.00053444","LAUNCH_DATE":"2023-01-26","TLE_LINE1":"1 55351U 23013W   23108.91667824  .00053444  00000-0  39441-2 0  9998","EPHEMERIS_TYPE":"0","BSTAR":"0.00394410000000","TIME_SYSTEM":"UTC","TLE_LINE2":"2 55351  43.0000 276.9024 0001442 271.1898 178.0874 15.02508764  1302","FILE":"3889987","OBJECT_TYPE":"PAYLOAD","SEMIMAJOR_AXIS":"6937.300","ECCENTRICITY":"0.00014420","SITE":"AFETR","OBJECT_NAME":"STARLINK-5659","PERIAPSIS":"558.165","MEAN_ANOMALY":"178.0874","MEAN_ELEMENT_THEORY":"SGP4","OBJECT_ID":"2023-013W","REF_FRAME":"TEME"},{"MEAN_ANOMALY":"134.6965","MEAN_ELEMENT_THEORY":"SGP4","OBJECT_ID":"2023-013X","REF_FRAME":"TEME","SEMIMAJOR_AXIS":"6931.272","OBJECT_NAME":"STARLINK-5547","SITE":"AFETR","ECCENTRICITY":"0.00013300","PERIAPSIS":"552.215","BSTAR":"0.00016385000000","TLE_LINE2":"2 55352  42.9996 276.9844 0001330 280.6125 134.6965 15.04469405  1308","TIME_SYSTEM":"UTC","FILE":"3889987","OBJECT_TYPE":"PAYLOAD","MEAN_MOTION_DOT":"0.00002124","LAUNCH_DATE":"2023-01-26","TLE_LINE1":"1 55352U 23013X   23108.91667824  .00002124  00000-0  16385-3 0  9991","EPHEMERIS_TYPE":"0","RA_OF_ASC_NODE":"276.9844","MEAN_MOTION":"15.04469405","CLASSIFICATION_TYPE":"U","PERIOD":"95.715","MEAN_MOTION_DDOT":"0.0000000000000","RCS_SIZE":"LARGE","INCLINATION":"42.9996","DECAY_DATE":null,"GP_ID":"230333659","CENTER_NAME":"EARTH","ARG_OF_PERICENTER":"280.6125","REV_AT_EPOCH":"130","COUNTRY_CODE":"US","EPOCH":"2023-04-18T22:00:00.999936","ELEMENT_SET_NO":"999","APOAPSIS":"554.059","NORAD_CAT_ID":"55352"},{"MEAN_MOTION":"15.04449131","RA_OF_ASC_NODE":"276.7157","PERIOD":"95.716","CLASSIFICATION_TYPE":"U","INCLINATION":"43.0003","RCS_SIZE":"LARGE","MEAN_MOTION_DDOT":"0.0000000000000","DECAY_DATE":null,"GP_ID":"230333910","COUNTRY_CODE":"US","REV_AT_EPOCH":"130","ARG_OF_PERICENTER":"271.5257","CENTER_NAME":"EARTH","ELEMENT_SET_NO":"999","EPOCH":"2023-04-18T22:00:00.999936","NORAD_CAT_ID":"55353","APOAPSIS":"554.226","REF_FRAME":"TEME","OBJECT_ID":"2023-013Y","MEAN_ELEMENT_THEORY":"SGP4","MEAN_ANOMALY":"255.3675","PERIAPSIS":"552.172","OBJECT_NAME":"STARLINK-5608","SITE":"AFETR","ECCENTRICITY":"0.00014820","SEMIMAJOR_AXIS":"6931.334","BSTAR":"0.00375210000000","OBJECT_TYPE":"PAYLOAD","FILE":"3889987","TLE_LINE2":"2 55353  43.0003 276.7157 0001482 271.5257 255.3675 15.04449131  1301","TIME_SYSTEM":"UTC","TLE_LINE1":"1 55353U 23013Y   23108.91667824  .00053537  00000-0  37521-2 0  9990","LAUNCH_DATE":"2023-01-26","MEAN_MOTION_DOT":"0.00053537","EPHEMERIS_TYPE":"0"},{"DECAY_DATE":null,"GP_ID":"230334158","COUNTRY_CODE":"US","REV_AT_EPOCH":"130","ARG_OF_PERICENTER":"280.6136","CENTER_NAME":"EARTH","ELEMENT_SET_NO":"999","EPOCH":"2023-04-18T22:00:00.999936","NORAD_CAT_ID":"55354","APOAPSIS":"560.366","MEAN_MOTION":"15.02494520","RA_OF_ASC_NODE":"276.9325","PERIOD":"95.841","CLASSIFICATION_TYPE":"U","INCLINATION":"43.0001","RCS_SIZE":"LARGE","MEAN_MOTION_DDOT":"0.0000000000000","BSTAR":"0.00446040000000","OBJECT_TYPE":"PAYLOAD","FILE":"3889987","TLE_LINE2":"2 55354  43.0001 276.9325 0001668 280.6136 156.6595 15.02494520  1306","TIME_SYSTEM":"UTC","TLE_LINE1":"1 55354U 23013Z   23108.91667824  .00060505  00000-0  44604-2 0  9994","LAUNCH_DATE":"2023-01-26","MEAN_MOTION_DOT":"0.00060505","EPHEMERIS_TYPE":"0","REF_FRAME":"TEME","OBJECT_ID":"2023-013Z","MEAN_ELEMENT_THEORY":"SGP4","MEAN_ANOMALY":"156.6595","PERIAPSIS":"558.052","SITE":"AFETR","OBJECT_NAME":"STARLINK-5649","ECCENTRICITY":"0.00016680","SEMIMAJOR_AXIS":"6937.344"},{"GP_ID":"230333411","DECAY_DATE":null,"CENTER_NAME":"EARTH","ARG_OF_PERICENTER":"262.1411","COUNTRY_CODE":"US","REV_AT_EPOCH":"130","EPOCH":"2023-04-18T22:00:00.999936","ELEMENT_SET_NO":"999","APOAPSIS":"554.330","NORAD_CAT_ID":"55355","RA_OF_ASC_NODE":"276.8619","MEAN_MOTION":"15.04456100","CLASSIFICATION_TYPE":"U","PERIOD":"95.716","RCS_SIZE":"LARGE","INCLINATION":"43.0002","MEAN_MOTION_DDOT":"0.0000000000000","BSTAR":"0.00268330000000","TLE_LINE2":"2 55355  43.0002 276.8619 0001663 262.1411 204.0131 15.04456100  1307","TIME_SYSTEM":"UTC","OBJECT_TYPE":"PAYLOAD","FILE":"3889987","LAUNCH_DATE":"2023-01-26","MEAN_MOTION_DOT":"0.00038151","TLE_LINE1":"1 55355U 23013AA  23108.91667824  .00038151  00000-0  26833-2 0  9991","EPHEMERIS_TYPE":"0","MEAN_ANOMALY":"204.0131","REF_FRAME":"TEME","MEAN_ELEMENT_THEORY":"SGP4","OBJECT_ID":"2023-013AA","OBJECT_NAME":"STARLINK-5647","SITE":"AFETR","ECCENTRICITY":"0.00016630","SEMIMAJOR_AXIS":"6931.313","PERIAPSIS":"552.025"},{"INCLINATION":"43.0002","RCS_SIZE":"LARGE","MEAN_MOTION_DDOT":"0.0000000000000","RA_OF_ASC_NODE":"276.7871","MEAN_MOTION":"15.02507800","CLASSIFICATION_TYPE":"U","PERIOD":"95.840","EPOCH":"2023-04-18T22:00:00.999936","ELEMENT_SET_NO":"999","APOAPSIS":"560.227","NORAD_CAT_ID":"55357","DECAY_DATE":null,"GP_ID":"230333160","ARG_OF_PERICENTER":"274.8546","CENTER_NAME":"EARTH","REV_AT_EPOCH":"130","COUNTRY_CODE":"US","SEMIMAJOR_AXIS":"6937.303","SITE":"AFETR","OBJECT_NAME":"STARLINK-5651","ECCENTRICITY":"0.00015260","PERIAPSIS":"558.110","MEAN_ANOMALY":"222.5133","OBJECT_ID":"2023-013AC","MEAN_ELEMENT_THEORY":"SGP4","REF_FRAME":"TEME","MEAN_MOTION_DOT":"0.00046084","LAUNCH_DATE":"2023-01-26","TLE_LINE1":"1 55357U 23013AC  23108.91667824  .00046084  00000-0  34067-2 0  9995","EPHEMERIS_TYPE":"0","BSTAR":"0.00340670000000","TIME_SYSTEM":"UTC","TLE_LINE2":"2 55357  43.0002 276.7871 0001526 274.8546 222.5133 15.02507800  1304","FILE":"3889987","OBJECT_TYPE":"PAYLOAD"},{"SEMIMAJOR_AXIS":"6930.871","SITE":"AFETR","OBJECT_NAME":"STARLINK-5622","ECCENTRICITY":"0.00015810","PERIAPSIS":"551.641","MEAN_ANOMALY":"189.8119","MEAN_ELEMENT_THEORY":"SGP4","OBJECT_ID":"2023-013AD","REF_FRAME":"TEME","EPHEMERIS_TYPE":"0","MEAN_MOTION_DOT":"-0.00355904","LAUNCH_DATE":"2023-01-26","TLE_LINE1":"1 55358U 23013AD  23108.91667824 -.00355904  00000-0 -26202-1 0  9993","TIME_SYSTEM":"UTC","TLE_LINE2":"2 55358  43.0001 276.8732 0001581 271.9979 189.8119 15.04599810  1303","FILE":"3889987","OBJECT_TYPE":"PAYLOAD","BSTAR":"-0.02620200000000","RCS_SIZE":"LARGE","INCLINATION":"43.0001","MEAN_MOTION_DDOT":"0.0000000000000","CLASSIFICATION_TYPE":"U","PERIOD":"95.707","RA_OF_ASC_NODE":"276.8732","MEAN_MOTION":"15.04599810","APOAPSIS":"553.832","NORAD_CAT_ID":"55358","EPOCH":"2023-04-18T22:00:00.999936","ELEMENT_SET_NO":"999","CENTER_NAME":"EARTH","ARG_OF_PERICENTER":"271.9979","REV_AT_EPOCH":"130","COUNTRY_CODE":"US","DECAY_DATE":null,"GP_ID":"230334410"},{"MEAN_MOTION":"15.02495593","RA_OF_ASC_NODE":"276.7593","PERIOD":"95.841","CLASSIFICATION_TYPE":"U","INCLINATION":"43.0006","RCS_SIZE":"LARGE","MEAN_MOTION_DDOT":"0.0000000000000","GP_ID":"230334658","DECAY_DATE":null,"REV_AT_EPOCH":"130","COUNTRY_CODE":"US","ARG_OF_PERICENTER":"273.5419","CENTER_NAME":"EARTH","ELEMENT_SET_NO":"999","EPOCH":"2023-04-18T22:00:00.999936","NORAD_CAT_ID":"55359","APOAPSIS":"560.160","OBJECT_ID":"2023-013AE","MEAN_ELEMENT_THEORY":"SGP4","REF_FRAME":"TEME","MEAN_ANOMALY":"235.8525","PERIAPSIS":"558.251","SEMIMAJOR_AXIS":"6937.341","SITE":"AFETR","ECCENTRICITY":"0.00013760","OBJECT_NAME":"STARLINK-5641","BSTAR":"0.00413750000000","FILE":"3889987","OBJECT_TYPE":"PAYLOAD","TLE_LINE2":"2 55359  43.0006 276.7593 0001376 273.5419 235.8525 15.02495593  1306","TIME_SYSTEM":"UTC","TLE_LINE1":"1 55359U 23013AE  23108.91667824  .00056076  00000-0  41375-2 0  9999","MEAN_MOTION_DOT":"0.00056076","LAUNCH_DATE":"2023-01-26","EPHEMERIS_TYPE":"0"},{"REF_FRAME":"TEME","OBJECT_ID":"2023-013AF","MEAN_ELEMENT_THEORY":"SGP4","MEAN_ANOMALY":"79.5662","PERIAPSIS":"557.925","SITE":"AFETR","ECCENTRICITY":"0.00016350","OBJECT_NAME":"STARLINK-5664","SEMIMAJOR_AXIS":"6937.195","BSTAR":"0.00023652000000","OBJECT_TYPE":"PAYLOAD","FILE":"3889987","TIME_SYSTEM":"UTC","TLE_LINE2":"2 55360  43.0000 289.7769 0001635 280.4996  79.5662 15.02543119 12749","TLE_LINE1":"1 55360U 23013AF  23108.87330720  .00002993  00000-0  23652-3 0  9996","LAUNCH_DATE":"2023-01-26","MEAN_MOTION_DOT":"0.00002993","EPHEMERIS_TYPE":"0","MEAN_MOTION":"15.02543119","RA_OF_ASC_NODE":"289.7769","PERIOD":"95.838","CLASSIFICATION_TYPE":"U","MEAN_MOTION_DDOT":"0.0000000000000","RCS_SIZE":"LARGE","INCLINATION":"43.0000","GP_ID":"230332912","DECAY_DATE":null,"COUNTRY_CODE":"US","REV_AT_EPOCH":"1274","CENTER_NAME":"EARTH","ARG_OF_PERICENTER":"280.4996","ELEMENT_SET_NO":"999","EPOCH":"2023-04-18T20:57:33.742080","NORAD_CAT_ID":"55360","APOAPSIS":"560.194"}];
